{
  "type": "FeatureCollection",
  "features": [
    {
      "type": "Feature",
      "properties": {
        "OBJECT_NAME": "IRIDIUM 33 DEB",
        "OBJECT_ID": "1997-051GH",
        "EPOCH": "2025-11-29T19:16:58.252800",
        "MEAN_MOTION": 14.25118071,
        "ECCENTRICITY": 0.0190511,
        "INCLINATION": 86.471,
        "RA_OF_ASC_NODE": 339.8576,
        "ARG_OF_PERICENTER": 280.0935,
        "MEAN_ANOMALY": 256.1765,
        "EPHEMERIS_TYPE": 0,
        "CLASSIFICATION_TYPE": "U",
        "NORAD_CAT_ID": 34492,
        "ELEMENT_SET_NO": 999,
        "REV_AT_EPOCH": 84874,
        "BSTAR": 0.0061921,
        "MEAN_MOTION_DOT": 0.00017598,
        "MEAN_MOTION_DDOT": 0,
        "norad_id": 34492,
        "name": "IRIDIUM 33 DEB",
        "group": "iridium-33-debris",
        "longitude_deg": NaN,
        "latitude_deg": NaN,
        "alt_km": NaN,
        "orbit_class": "HEO",
        "timestamp": "2025-11-30T04:52:16.942034+00:00"
      },
      "geometry": {
        "type": "Point",
        "coordinates": [
          NaN,
          NaN
        ]
      }
    },
    {
      "type": "Feature",
      "properties": {
        "OBJECT_NAME": "IRIDIUM 33 DEB",
        "OBJECT_ID": "1997-051GN",
        "EPOCH": "2025-11-29T06:15:14.219136",
        "MEAN_MOTION": 14.27390764,
        "ECCENTRICITY": 0.00802923,
        "INCLINATION": 86.2782,
        "RA_OF_ASC_NODE": 58.1582,
        "ARG_OF_PERICENTER": 23.2121,
        "MEAN_ANOMALY": 31.017,
        "EPHEMERIS_TYPE": 0,
        "CLASSIFICATION_TYPE": "U",
        "NORAD_CAT_ID": 34497,
        "ELEMENT_SET_NO": 999,
        "REV_AT_EPOCH": 86691,
        "BSTAR": 0.00060932956,
        "MEAN_MOTION_DOT": 1.564e-05,
        "MEAN_MOTION_DDOT": 0,
        "norad_id": 34497,
        "name": "IRIDIUM 33 DEB",
        "group": "iridium-33-debris",
        "longitude_deg": NaN,
        "latitude_deg": NaN,
        "alt_km": NaN,
        "orbit_class": "HEO",
        "timestamp": "2025-11-30T04:52:16.942044+00:00"
      },
      "geometry": {
        "type": "Point",
        "coordinates": [
          NaN,
          NaN
        ]
      }
    },
    {
      "type": "Feature",
      "properties": {
        "OBJECT_NAME": "IRIDIUM 33 DEB",
        "OBJECT_ID": "1997-051GZ",
        "EPOCH": "2025-11-29T19:24:23.364000",
        "MEAN_MOTION": 14.38225674,
        "ECCENTRICITY": 0.0065191,
        "INCLINATION": 86.3693,
        "RA_OF_ASC_NODE": 108.1234,
        "ARG_OF_PERICENTER": 215.0484,
        "MEAN_ANOMALY": 144.6416,
        "EPHEMERIS_TYPE": 0,
        "CLASSIFICATION_TYPE": "U",
        "NORAD_CAT_ID": 34508,
        "ELEMENT_SET_NO": 999,
        "REV_AT_EPOCH": 87123,
        "BSTAR": 0.0015313,
        "MEAN_MOTION_DOT": 4.786e-05,
        "MEAN_MOTION_DDOT": 0,
        "norad_id": 34508,
        "name": "IRIDIUM 33 DEB",
        "group": "iridium-33-debris",
        "longitude_deg": NaN,
        "latitude_deg": NaN,
        "alt_km": NaN,
        "orbit_class": "HEO",
        "timestamp": "2025-11-30T04:52:16.942050+00:00"
      },
      "geometry": {
        "type": "Point",
        "coordinates": [
          NaN,
          NaN
        ]
      }
    },
    {
      "type": "Feature",
      "properties": {
        "OBJECT_NAME": "IRIDIUM 33 DEB",
        "OBJECT_ID": "1997-051HN",
        "EPOCH": "2025-11-29T15:40:40.046592",
        "MEAN_MOTION": 14.63177591,
        "ECCENTRICITY": 0.0001373,
        "INCLINATION": 86.3812,
        "RA_OF_ASC_NODE": 36.307,
        "ARG_OF_PERICENTER": 323.7962,
        "MEAN_ANOMALY": 36.3156,
        "EPHEMERIS_TYPE": 0,
        "CLASSIFICATION_TYPE": "U",
        "NORAD_CAT_ID": 34521,
        "ELEMENT_SET_NO": 999,
        "REV_AT_EPOCH": 88281,
        "BSTAR": 0.00091133,
        "MEAN_MOTION_DOT": 4.709e-05,
        "MEAN_MOTION_DDOT": 0,
        "norad_id": 34521,
        "name": "IRIDIUM 33 DEB",
        "group": "iridium-33-debris",
        "longitude_deg": NaN,
        "latitude_deg": NaN,
        "alt_km": NaN,
        "orbit_class": "HEO",
        "timestamp": "2025-11-30T04:52:16.942056+00:00"
      },
      "geometry": {
        "type": "Point",
        "coordinates": [
          NaN,
          NaN
        ]
      }
    },
    {
      "type": "Feature",
      "properties": {
        "OBJECT_NAME": "IRIDIUM 33 DEB",
        "OBJECT_ID": "1997-051HS",
        "EPOCH": "2025-11-29T17:39:47.285280",
        "MEAN_MOTION": 14.42852136,
        "ECCENTRICITY": 0.00063,
        "INCLINATION": 86.3737,
        "RA_OF_ASC_NODE": 52.3929,
        "ARG_OF_PERICENTER": 125.1437,
        "MEAN_ANOMALY": 2.7242,
        "EPHEMERIS_TYPE": 0,
        "CLASSIFICATION_TYPE": "U",
        "NORAD_CAT_ID": 34525,
        "ELEMENT_SET_NO": 999,
        "REV_AT_EPOCH": 87900,
        "BSTAR": 0.00039858,
        "MEAN_MOTION_DOT": 1.35e-05,
        "MEAN_MOTION_DDOT": 0,
        "norad_id": 34525,
        "name": "IRIDIUM 33 DEB",
        "group": "iridium-33-debris",
        "longitude_deg": NaN,
        "latitude_deg": NaN,
        "alt_km": NaN,
        "orbit_class": "HEO",
        "timestamp": "2025-11-30T04:52:16.942064+00:00"
      },
      "geometry": {
        "type": "Point",
        "coordinates": [
          NaN,
          NaN
        ]
      }
    },
    {
      "type": "Feature",
      "properties": {
        "OBJECT_NAME": "IRIDIUM 33 DEB",
        "OBJECT_ID": "1997-051HW",
        "EPOCH": "2025-11-29T05:23:51.275328",
        "MEAN_MOTION": 14.40598586,
        "ECCENTRICITY": 0.00032667,
        "INCLINATION": 86.3651,
        "RA_OF_ASC_NODE": 41.1719,
        "ARG_OF_PERICENTER": 228.9301,
        "MEAN_ANOMALY": 131.1616,
        "EPHEMERIS_TYPE": 0,
        "CLASSIFICATION_TYPE": "U",
        "NORAD_CAT_ID": 34529,
        "ELEMENT_SET_NO": 999,
        "REV_AT_EPOCH": 87947,
        "BSTAR": 0.00012728579,
        "MEAN_MOTION_DOT": 4.25e-06,
        "MEAN_MOTION_DDOT": 0,
        "norad_id": 34529,
        "name": "IRIDIUM 33 DEB",
        "group": "iridium-33-debris",
        "longitude_deg": NaN,
        "latitude_deg": NaN,
        "alt_km": NaN,
        "orbit_class": "HEO",
        "timestamp": "2025-11-30T04:52:16.942070+00:00"
      },
      "geometry": {
        "type": "Point",
        "coordinates": [
          NaN,
          NaN
        ]
      }
    },
    {
      "type": "Feature",
      "properties": {
        "OBJECT_NAME": "IRIDIUM 33 DEB",
        "OBJECT_ID": "1997-051JF",
        "EPOCH": "2025-11-29T01:44:00.932928",
        "MEAN_MOTION": 14.42525897,
        "ECCENTRICITY": 0.00345256,
        "INCLINATION": 86.2787,
        "RA_OF_ASC_NODE": 11.541,
        "ARG_OF_PERICENTER": 13.6384,
        "MEAN_ANOMALY": 15.0982,
        "EPHEMERIS_TYPE": 0,
        "CLASSIFICATION_TYPE": "U",
        "NORAD_CAT_ID": 34538,
        "ELEMENT_SET_NO": 999,
        "REV_AT_EPOCH": 87559,
        "BSTAR": 0.0009268476,
        "MEAN_MOTION_DOT": 3.113e-05,
        "MEAN_MOTION_DDOT": 0,
        "norad_id": 34538,
        "name": "IRIDIUM 33 DEB",
        "group": "iridium-33-debris",
        "longitude_deg": NaN,
        "latitude_deg": NaN,
        "alt_km": NaN,
        "orbit_class": "HEO",
        "timestamp": "2025-11-30T04:52:16.942077+00:00"
      },
      "geometry": {
        "type": "Point",
        "coordinates": [
          NaN,
          NaN
        ]
      }
    },
    {
      "type": "Feature",
      "properties": {
        "OBJECT_NAME": "IRIDIUM 33 DEB",
        "OBJECT_ID": "1997-051JH",
        "EPOCH": "2025-11-29T17:30:00.973152",
        "MEAN_MOTION": 14.74886687,
        "ECCENTRICITY": 0.0014369,
        "INCLINATION": 86.3097,
        "RA_OF_ASC_NODE": 313.5541,
        "ARG_OF_PERICENTER": 207.857,
        "MEAN_ANOMALY": 327.9245,
        "EPHEMERIS_TYPE": 0,
        "CLASSIFICATION_TYPE": "U",
        "NORAD_CAT_ID": 34540,
        "ELEMENT_SET_NO": 999,
        "REV_AT_EPOCH": 88829,
        "BSTAR": 0.0016193,
        "MEAN_MOTION_DOT": 0.00010909,
        "MEAN_MOTION_DDOT": 0,
        "norad_id": 34540,
        "name": "IRIDIUM 33 DEB",
        "group": "iridium-33-debris",
        "longitude_deg": NaN,
        "latitude_deg": NaN,
        "alt_km": NaN,
        "orbit_class": "HEO",
        "timestamp": "2025-11-30T04:52:16.942082+00:00"
      },
      "geometry": {
        "type": "Point",
        "coordinates": [
          NaN,
          NaN
        ]
      }
    },
    {
      "type": "Feature",
      "properties": {
        "OBJECT_NAME": "IRIDIUM 33 DEB",
        "OBJECT_ID": "1997-051JZ",
        "EPOCH": "2025-11-29T03:32:03.956064",
        "MEAN_MOTION": 14.1080574,
        "ECCENTRICITY": 0.01872475,
        "INCLINATION": 86.3905,
        "RA_OF_ASC_NODE": 287.4308,
        "ARG_OF_PERICENTER": 340.7384,
        "MEAN_ANOMALY": 18.6782,
        "EPHEMERIS_TYPE": 0,
        "CLASSIFICATION_TYPE": "U",
        "NORAD_CAT_ID": 34648,
        "ELEMENT_SET_NO": 999,
        "REV_AT_EPOCH": 84769,
        "BSTAR": 0.0076670811,
        "MEAN_MOTION_DOT": 0.00016208,
        "MEAN_MOTION_DDOT": 0,
        "norad_id": 34648,
        "name": "IRIDIUM 33 DEB",
        "group": "iridium-33-debris",
        "longitude_deg": NaN,
        "latitude_deg": NaN,
        "alt_km": NaN,
        "orbit_class": "HEO",
        "timestamp": "2025-11-30T04:52:16.942090+00:00"
      },
      "geometry": {
        "type": "Point",
        "coordinates": [
          NaN,
          NaN
        ]
      }
    }
  ]
}